NORAD_CAT_ID,OBJECT_NAME,OBJECT_TYPE,EPOCH,MEAN_MOTION,ECCENTRICITY,INCLINATION,RA_OF_ASC_NODE,ARG_OF_PERICENTER,MEAN_ANOMALY,BSTAR,MEAN_MOTION_DOT,MEAN_MOTION_DDOT,TLE_LINE0,TLE_LINE1,TLE_LINE2,SEMIMAJOR_AXIS,PERIOD,APOGEE,PERIGEE,DECAYED
52865.0,STARLINK-4274,PAYLOAD,2024-04-13 15:56:54,15.08836794,0.0001224,53.2179,264.2095,89.4131,270.7001,4.531e-05,4.33e-06,0.0,0 STARLINK-4274,1 52865U 22062AM  24104.66451887  .00000433  00000-0  45310-4 0  9991,2 52865  53.2179 264.2095 0001224  89.4131 270.7001 15.08836794101491,6917.89,95.438,540.602,538.908,0.0
52865.0,STARLINK-4274,PAYLOAD,2024-04-14 15:47:41,15.08842182,0.0001165,53.2178,259.7499,74.6537,285.4584,0.00011296,1.51e-05,0.0,0 STARLINK-4274,1 52865U 22062AM  24105.65811596  .00001510  00000-0  11296-3 0  9990,2 52865  53.2178 259.7499 0001165  74.6537 285.4584 15.08842182101157,6917.874,95.437,540.545,538.933,0.0
52865.0,STARLINK-4274,PAYLOAD,2024-04-15 09:16:55,15.08842655,0.0001204,53.2182,256.4785,79.3091,280.8036,0.00012045,1.63e-05,0.0,0 STARLINK-4274,1 52865U 22062AM  24106.38675616  .00001630  00000-0  12045-3 0  9998,2 52865  53.2182 256.4785 0001204  79.3091 280.8036 15.08842655101757,6917.872,95.437,540.57,538.904,0.0
52865.0,STARLINK-4274,PAYLOAD,2024-04-15 14:03:04,15.08843902,0.0001242,53.2175,255.5866,77.5881,282.525,0.00010741,1.422e-05,0.0,0 STARLINK-4274,1 52865U 22062AM  24106.58547424  .00001422  00000-0  10741-3 0  9995,2 52865  53.2175 255.5866 0001242  77.5881 282.5250 15.08843902101290,6917.868,95.437,540.593,538.874,0.0
52865.0,STARLINK-4274,PAYLOAD,2024-04-15 18:49:14,15.08846011,0.0001976,53.2197,254.6944,124.4179,235.7,0.00021196,3.087e-05,0.0,0 STARLINK-4274,1 52865U 22062AM  24106.78419063  .00003087  00000-0  21196-3 0  9999,2 52865  53.2197 254.6944 0001976 124.4179 235.7000 15.08846011101328,6917.862,95.437,541.094,538.36,0.0
52865.0,STARLINK-4274,PAYLOAD,2024-04-16 13:53:52,15.08842697,0.0001977,53.2178,251.126,77.92,282.2013,5.7646e-05,6.29e-06,0.0,0 STARLINK-4274,1 52865U 22062AM  24107.57907450  .00000629  00000-0  57646-4 0  9998,2 52865  53.2178 251.1260 0001977  77.9200 282.2013 15.08842697101932,6917.872,95.437,541.105,538.369,0.0
52865.0,STARLINK-4274,PAYLOAD,2024-04-16 17:04:39,15.08824728,0.0002005,53.2172,250.5312,47.6344,312.4818,-7.6294e-05,-1.502e-05,0.0,0 STARLINK-4274,1 52865U 22062AM  24107.71157302 -.00001502  00000-0 -76294-4 0  9990,2 52865  53.2172 250.5312 0002005  47.6344 312.4818 15.08824728101959,6917.927,95.439,541.179,538.405,0.0
52865.0,STARLINK-4274,PAYLOAD,2024-04-17 13:44:38,15.08850103,0.0001831,53.2164,246.6655,70.5352,289.5838,0.00015666,2.207e-05,0.0,0 STARLINK-4274,1 52865U 22062AM  24108.57266895  .00002207  00000-0  15666-3 0  9999,2 52865  53.2164 246.6655 0001831  70.5352 289.5838 15.08850103102083,6917.85,95.437,540.981,538.448,0.0
52865.0,STARLINK-4274,PAYLOAD,2024-04-17 16:55:24,15.08864098,0.0001841,53.2165,246.0695,79.6864,280.4335,0.00034933,5.279e-05,0.0,0 STARLINK-4274,1 52865U 22062AM  24108.70514176  .00005279  00000-0  34933-3 0  9992,2 52865  53.2165 246.0695 0001841  79.6864 280.4335 15.08864098102104,6917.807,95.436,540.945,538.398,0.0
52865.0,STARLINK-4274,PAYLOAD,2024-04-18 08:49:16,15.08832537,0.0001495,53.2164,243.0972,87.348,272.7683,1.0418e-05,-1.22e-06,0.0,0 STARLINK-4274,1 52865U 22062AM  24109.36755750 -.00000122  00000-0  10418-4 0  9996,2 52865  53.2164 243.0972 0001495  87.3480 272.7683 15.08832537102207,6917.903,95.438,540.802,538.734,0.0
52865.0,STARLINK-4274,PAYLOAD,2024-04-18 15:10:49,15.08833564,0.0001345,53.2165,241.9072,87.4566,272.658,-2.1691e-05,-6.33e-06,0.0,0 STARLINK-4274,1 52865U 22062AM  24109.63251772 -.00000633  00000-0 -21691-4 0  9994,2 52865  53.2165 241.9072 0001345  87.4566 272.6580 15.08833564101751,6917.9,95.438,540.696,538.835,0.0
52865.0,STARLINK-4274,PAYLOAD,2024-04-19 13:26:13,15.0884151,0.0001675,53.2167,237.745,80.5794,279.5387,3.251e-06,-2.36e-06,0.0,0 STARLINK-4274,1 52865U 22062AM  24110.55987921 -.00000236  00000-0  32510-5 0  9990,2 52865  53.2167 237.7450 0001675  80.5794 279.5387 15.08841510102380,6917.876,95.437,540.9,538.582,0.0
52865.0,STARLINK-4274,PAYLOAD,2024-04-19 18:12:22,15.08855145,0.0001386,53.2163,236.8469,92.8855,267.2296,0.00016183,2.29e-05,0.0,0 STARLINK-4274,1 52865U 22062AM  24110.75858994  .00002290  00000-0  16183-3 0  9996,2 52865  53.2163 236.8469 0001386  92.8855 267.2296 15.08855145102415,6917.834,95.437,540.658,538.74,0.0
52865.0,STARLINK-4274,PAYLOAD,2024-04-20 13:17:01,15.08821213,0.0001551,53.217,233.2842,101.1975,258.9191,-3.9477e-05,-9.16e-06,0.0,0 STARLINK-4274,1 52865U 22062AM  24111.55349446 -.00000916  00000-0 -39477-4 0  9999,2 52865  53.2170 233.2842 0001551 101.1975 258.9191 15.08821213102533,6917.938,95.439,540.876,538.73,0.0
52865.0,STARLINK-4274,PAYLOAD,2024-04-20 14:52:24,15.08824664,0.000166,53.2177,232.9852,104.1952,255.9225,3.0366e-05,1.95e-06,0.0,0 STARLINK-4274,1 52865U 22062AM  24111.61973379  .00000195  00000-0  30366-4 0  9999,2 52865  53.2177 232.9852 0001660 104.1952 255.9225 15.08824664102051,6917.927,95.439,540.941,538.644,0.0
52865.0,STARLINK-4274,PAYLOAD,2024-04-20 18:03:11,15.08828104,0.000162,53.2173,232.3873,110.7459,249.3707,9.8082e-05,1.273e-05,0.0,0 STARLINK-4274,1 52865U 22062AM  24111.75221309  .00001273  00000-0  98082-4 0  9990,2 52865  53.2173 232.3873 0001620 110.7459 249.3707 15.08828104102072,6917.917,95.438,540.902,538.661,0.0
52865.0,STARLINK-4274,PAYLOAD,2024-04-21 13:07:48,15.08850043,0.0002008,53.2178,228.8183,118.5121,241.6074,0.00049699,7.633e-05,0.0,0 STARLINK-4274,1 52865U 22062AM  24112.54708838  .00007633  00000-0  49699-3 0  9990,2 52865  53.2178 228.8183 0002008 118.5121 241.6074 15.08850043102196,6917.85,95.437,541.104,538.326,0.0
52865.0,STARLINK-4274,PAYLOAD,2024-04-21 17:53:57,15.08855577,0.0001471,53.2176,227.9255,95.8692,264.2468,0.00067554,0.00010484,0.0,0 STARLINK-4274,1 52865U 22062AM  24112.74580774  .00010484  00000-0  67554-3 0  9997,2 52865  53.2176 227.9255 0001471  95.8692 264.2468 15.08855577102226,6917.833,95.437,540.715,538.68,0.0
52865.0,STARLINK-4274,PAYLOAD,2024-04-22 06:37:03,15.08823719,0.0001349,53.2181,225.5475,119.7962,240.3164,-0.00012143,-2.219e-05,0.0,0 STARLINK-4274,1 52865U 22062AM  24113.27574056 -.00002219  00000-0 -12143-3 0  9995,2 52865  53.2181 225.5475 0001349 119.7962 240.3164 15.08823719102793,6917.93,95.439,540.728,538.862,0.0
52865.0,STARLINK-4274,PAYLOAD,2024-04-22 17:44:45,15.088405,0.000248,53.2181,223.4663,136.8993,223.2193,0.00014205,1.973e-05,0.0,0 STARLINK-4274,1 52865U 22062AM  24113.73941516  .00001973  00000-0  14205-3 0  9990,2 52865  53.2181 223.4663 0002480 136.8993 223.2193 15.08840500102867,6917.879,95.438,541.459,538.028,0.0
52865.0,STARLINK-4274,PAYLOAD,2024-04-23 14:24:46,15.08859722,0.0001404,53.2173,219.6006,89.4736,270.6417,0.0010141,0.00015897,0.0,0 STARLINK-4274,1 52865U 22062AM  24114.60053522  .00015897  00000-0  10141-2 0  9992,2 52865  53.2173 219.6006 0001404  89.4736 270.6417 15.08859722102501,6917.82,95.436,540.656,538.714,0.0
52865.0,STARLINK-4274,PAYLOAD,2024-04-24 12:40:10,15.08842264,0.000156,53.2172,215.4373,83.1085,277.0085,0.00025117,3.712e-05,0.0,0 STARLINK-4274,1 52865U 22062AM  24115.52789941  .00003712  00000-0  25117-3 0  9998,2 52865  53.2172 215.4373 0001560  83.1085 277.0085 15.08842264103137,6917.873,95.437,540.818,538.659,0.0
52865.0,STARLINK-4274,PAYLOAD,2024-04-24 14:15:33,15.08847417,0.0001738,53.218,215.1407,73.1911,286.9271,0.00044171,6.75e-05,0.0,0 STARLINK-4274,1 52865U 22062AM  24115.59413953  .00006750  00000-0  44171-3 0  9998,2 52865  53.2180 215.1407 0001738  73.1911 286.9271 15.08847417102652,6917.858,95.437,540.925,538.52,0.0
52865.0,STARLINK-4274,PAYLOAD,2024-04-25 14:06:20,15.08845892,0.000162,53.2163,210.6821,79.3292,280.7882,0.00059493,9.194e-05,0.0,0 STARLINK-4274,1 52865U 22062AM  24116.58773724  .00009194  00000-0  59493-3 0  9991,2 52865  53.2163 210.6821 0001620  79.3292 280.7882 15.08845892102805,6917.862,95.437,540.848,538.607,0.0
52865.0,STARLINK-4274,PAYLOAD,2024-04-26 12:21:43,15.08857089,0.0001409,53.2156,206.5229,99.0772,261.0379,0.00060662,9.384e-05,0.0,0 STARLINK-4274,1 52865U 22062AM  24117.51508930  .00009384  00000-0  60662-3 0  9991,2 52865  53.2156 206.5229 0001409  99.0772 261.0379 15.08857089102949,6917.828,95.436,540.668,538.718,0.0
52865.0,STARLINK-4274,PAYLOAD,2024-04-26 15:32:29,15.08864335,0.0001331,53.215,205.9281,94.557,265.5574,0.00068474,0.00010634,0.0,0 STARLINK-4274,1 52865U 22062AM  24117.64756780  .00010634  00000-0  68474-3 0  9992,2 52865  53.2150 205.9281 0001331  94.5570 265.5574 15.08864335103459,6917.806,95.436,540.592,538.75,0.0
52865.0,STARLINK-4274,PAYLOAD,2024-04-27 12:12:29,15.08865979,0.0001666,53.2161,202.0613,78.712,281.4059,0.00081959,0.00012789,0.0,0 STARLINK-4274,1 52865U 22062AM  24118.50868011  .00012789  00000-0  81959-3 0  9995,2 52865  53.2161 202.0613 0001666  78.7120 281.4059 15.08865979103588,6917.801,95.436,540.818,538.513,0.0
52865.0,STARLINK-4274,PAYLOAD,2024-04-28 05:41:45,15.08831131,0.000153,53.2168,198.7884,66.7473,293.368,0.00017512,2.499e-05,0.0,0 STARLINK-4274,1 52865U 22062AM  24119.23733021  .00002499  00000-0  17512-3 0  9999,2 52865  53.2168 198.7884 0001530  66.7473 293.3680 15.08831131103691,6917.907,95.438,540.831,538.714,0.0
52865.0,STARLINK-4274,PAYLOAD,2024-04-28 12:03:18,15.08815042,0.0001352,53.2169,197.5994,84.4724,275.6423,-0.00027323,-4.631e-05,0.0,0 STARLINK-4274,1 52865U 22062AM  24119.50229395 -.00004631  00000-0 -27323-3 0  9996,2 52865  53.2169 197.5994 0001352  84.4724 275.6423 15.08815042103735,6917.957,95.439,540.757,538.886,0.0
52865.0,STARLINK-4274,PAYLOAD,2024-04-28 21:35:37,15.0881479,0.000139,53.2173,195.8173,89.828,270.2871,0.00058478,9.025e-05,0.0,0 STARLINK-4274,1 52865U 22062AM  24119.89974339  .00009025  00000-0  58478-3 0  9998,2 52865  53.2173 195.8173 0001390  89.8280 270.2871 15.08814790103308,6917.957,95.439,540.784,538.861,0.0
